{
    "links": {
        "self": "http://www.neowsapp.com/rest/v1/neo/3687179?api_key=iIulBulltgU6a56xZRHN4H3l9WmuAYTsLGpBGhQ2"
    },
    "id": "3687179",
    "neo_reference_id": "3687179",
    "name": "(2014 HZ193)",
    "designation": "2014 HZ193",
    "nasa_jpl_url": "http://ssd.jpl.nasa.gov/sbdb.cgi?sstr=3687179",
    "absolute_magnitude_h": 23.253,
    "estimated_diameter": {
        "kilometers": {
            "estimated_diameter_min": 0.0594230551,
            "estimated_diameter_max": 0.1328739907
        },
        "meters": {
            "estimated_diameter_min": 59.4230551426,
            "estimated_diameter_max": 132.8739907295
        },
        "miles": {
            "estimated_diameter_min": 0.0369237632,
            "estimated_diameter_max": 0.0825640445
        },
        "feet": {
            "estimated_diameter_min": 194.9575362339,
            "estimated_diameter_max": 435.9383037449
        }
    },
    "is_potentially_hazardous_asteroid": false,
    "close_approach_data": [
        {
            "close_approach_date": "2014-04-12",
            "close_approach_date_full": "2014-Apr-12 10:54",
            "epoch_date_close_approach": 1397300040000,
            "relative_velocity": {
                "kilometers_per_second": "4.8215332031",
                "kilometers_per_hour": "17357.5195311979",
                "miles_per_hour": "10785.287622038"
            },
            "miss_distance": {
                "astronomical": "0.2826155022",
                "lunar": "109.9374303558",
                "kilometers": "42278677.158100314",
                "miles": "26270751.7950957732"
            },
            "orbiting_body": "Earth"
        }
    ],
    "orbital_data": {
        "orbit_id": "4",
        "orbit_determination_date": "2017-04-06 08:41:08",
        "first_observation_date": "2014-04-23",
        "last_observation_date": "2014-04-29",
        "data_arc_in_days": 6,
        "observations_used": 13,
        "orbit_uncertainty": "9",
        "minimum_orbit_intersection": ".260027",
        "jupiter_tisserand_invariant": "4.113",
        "epoch_osculation": "2456775.5",
        "eccentricity": ".2919660707942788",
        "semi_major_axis": "1.716393813172229",
        "inclination": "10.13337292270282",
        "ascending_node_longitude": "49.01575799137364",
        "orbital_period": "821.3416333120646",
        "perihelion_distance": "1.215265055604724",
        "perihelion_argument": "123.3069609795675",
        "aphelion_distance": "2.217522570739734",
        "perihelion_time": "2456718.764772155347",
        "mean_anomaly": "24.86746220535837",
        "mean_motion": ".4383072590004942",
        "equinox": "J2000",
        "orbit_class": {
            "orbit_class_type": "AMO",
            "orbit_class_description": "Near-Earth asteroid orbits similar to that of 1221 Amor",
            "orbit_class_range": "1.017 AU < q (perihelion) < 1.3 AU"
        }
    },
    "is_sentry_object": false
}